[{"OBJECT_NAME":"TYVAK-0130","OBJECT_ID":"2021-041BF","EPOCH":"2026-03-09T11:37:42.710304","MEAN_MOTION":15.26049141,"ECCENTRICITY":0.0008953,"INCLINATION":52.9967,"RA_OF_ASC_NODE":128.603,"ARG_OF_PERICENTER":215.1647,"MEAN_ANOMALY":144.876,"EPHEMERIS_TYPE":0,"CLASSIFICATION_TYPE":"U","NORAD_CAT_ID":48606,"ELEMENT_SET_NO":999,"REV_AT_EPOCH":26515,"BSTAR":0.0003519806,"MEAN_MOTION_DOT":8.857e-5,"MEAN_MOTION_DDOT":0},{"OBJECT_NAME":"STARLINK-32950","OBJECT_ID":"2025-075U","EPOCH":"2026-03-09T21:41:44.354976","MEAN_MOTION":15.27601366,"ECCENTRICITY":0.00017328,"INCLINATION":42.9998,"RA_OF_ASC_NODE":269.058,"ARG_OF_PERICENTER":259.9137,"MEAN_ANOMALY":100.152,"EPHEMERIS_TYPE":0,"CLASSIFICATION_TYPE":"U","NORAD_CAT_ID":63566,"ELEMENT_SET_NO":999,"REV_AT_EPOCH":5196,"BSTAR":0.001339917,"MEAN_MOTION_DOT":0.00036818,"MEAN_MOTION_DDOT":0}]
